[{"OBJECT_NAME":"STARLINK-36349","OBJECT_ID":"2026-038D","EPOCH":"2026-03-05T16:00:00.999936","MEAN_MOTION":16.00463865,"ECCENTRICITY":0.0001105,"INCLINATION":97.2757,"RA_OF_ASC_NODE":74.6294,"ARG_OF_PERICENTER":97.537,"MEAN_ANOMALY":269.1392,"EPHEMERIS_TYPE":0,"CLASSIFICATION_TYPE":"U","NORAD_CAT_ID":67964,"ELEMENT_SET_NO":999,"REV_AT_EPOCH":255,"BSTAR":-0.0030354,"MEAN_MOTION_DOT":-0.01566913,"MEAN_MOTION_DDOT":0.00075695},{"OBJECT_NAME":"STARLINK-36806","OBJECT_ID":"2026-038E","EPOCH":"2026-03-05T16:00:00.999936","MEAN_MOTION":16.00714096,"ECCENTRICITY":0.0001064,"INCLINATION":97.2754,"RA_OF_ASC_NODE":74.6317,"ARG_OF_PERICENTER":90.9942,"MEAN_ANOMALY":280.9582,"EPHEMERIS_TYPE":0,"CLASSIFICATION_TYPE":"U","NORAD_CAT_ID":67965,"ELEMENT_SET_NO":999,"REV_AT_EPOCH":255,"BSTAR":-0.0029703,"MEAN_MOTION_DOT":-0.01555422,"MEAN_MOTION_DDOT":0.00074879},{"OBJECT_NAME":"STARLINK-36820","OBJECT_ID":"2026-038F","EPOCH":"2026-03-05T16:00:00.999936","MEAN_MOTION":16.00831814,"ECCENTRICITY":0.0001041,"INCLINATION":97.2754,"RA_OF_ASC_NODE":74.6329,"ARG_OF_PERICENTER":92.9138,"MEAN_ANOMALY":281.4122,"EPHEMERIS_TYPE":0,"CLASSIFICATION_TYPE":"U","NORAD_CAT_ID":67966,"ELEMENT_SET_NO":999,"REV_AT_EPOCH":255,"BSTAR":-0.002954,"MEAN_MOTION_DOT":-0.01557261,"MEAN_MOTION_DDOT":0.00075145},{"OBJECT_NAME":"STARLINK-36819","OBJECT_ID":"2026-038G","EPOCH":"2026-03-05T16:00:00.999936","MEAN_MOTION":16.00954616,"ECCENTRICITY":0.0001118,"INCLINATION":97.2753,"RA_OF_ASC_NODE":74.6338,"ARG_OF_PERICENTER":87.9487,"MEAN_ANOMALY":288.9322,"EPHEMERIS_TYPE":0,"CLASSIFICATION_TYPE":"U","NORAD_CAT_ID":67967,"ELEMENT_SET_NO":999,"REV_AT_EPOCH":255,"BSTAR":-0.0029277,"MEAN_MOTION_DOT":-0.01554357,"MEAN_MOTION_DDOT":0.00074989},{"OBJECT_NAME":"STARLINK-36812","OBJECT_ID":"2026-038H","EPOCH":"2026-03-05T16:00:00.999936","MEAN_MOTION":16.01058008,"ECCENTRICITY":0.000108,"INCLINATION":97.275,"RA_OF_ASC_NODE":74.6345,"ARG_OF_PERICENTER":85.6168,"MEAN_ANOMALY":293.466,"EPHEMERIS_TYPE":0,"CLASSIFICATION_TYPE":"U","NORAD_CAT_ID":67968,"ELEMENT_SET_NO":999,"REV_AT_EPOCH":255,"BSTAR":-0.0029062,"MEAN_MOTION_DOT":-0.01552098,"MEAN_MOTION_DDOT":0.00074875},{"OBJECT_NAME":"STARLINK-36709","OBJECT_ID":"2026-038J","EPOCH":"2026-03-05T16:00:00.999936","MEAN_MOTION":16.01313975,"ECCENTRICITY":0.00011,"INCLINATION":97.2751,"RA_OF_ASC_NODE":74.6369,"ARG_OF_PERICENTER":82.0966,"MEAN_ANOMALY":302.2075,"EPHEMERIS_TYPE":0,"CLASSIFICATION_TYPE":"U","NORAD_CAT_ID":67969,"ELEMENT_SET_NO":999,"REV_AT_EPOCH":255,"BSTAR":-0.0028654,"MEAN_MOTION_DOT":-0.01552933,"MEAN_MOTION_DDOT":0.00075171},{"OBJECT_NAME":"STARLINK-36319","OBJECT_ID":"2026-038K","EPOCH":"2026-03-05T16:00:00.999936","MEAN_MOTION":16.01188425,"ECCENTRICITY":0.0001171,"INCLINATION":97.2749,"RA_OF_ASC_NODE":74.6355,"ARG_OF_PERICENTER":76.9512,"MEAN_ANOMALY":304.7214,"EPHEMERIS_TYPE":0,"CLASSIFICATION_TYPE":"U","NORAD_CAT_ID":67970,"ELEMENT_SET_NO":999,"REV_AT_EPOCH":252,"BSTAR":-0.0028972,"MEAN_MOTION_DOT":-0.01558834,"MEAN_MOTION_DDOT":0.00075595},{"OBJECT_NAME":"STARLINK-36710","OBJECT_ID":"2026-038L","EPOCH":"2026-03-05T16:00:00.999936","MEAN_MOTION":16.01468954,"ECCENTRICITY":0.0001038,"INCLINATION":97.2747,"RA_OF_ASC_NODE":74.6384,"ARG_OF_PERICENTER":89.9553,"MEAN_ANOMALY":297.5325,"EPHEMERIS_TYPE":0,"CLASSIFICATION_TYPE":"U","NORAD_CAT_ID":67971,"ELEMENT_SET_NO":999,"REV_AT_EPOCH":255,"BSTAR":-0.0028268,"MEAN_MOTION_DOT":-0.01545798,"MEAN_MOTION_DDOT":0.00074663},{"OBJECT_NAME":"STARLINK-36894","OBJECT_ID":"2026-038M","EPOCH":"2026-03-05T16:00:00.999936","MEAN_MOTION":16.01603717,"ECCENTRICITY":0.0001182,"INCLINATION":97.2744,"RA_OF_ASC_NODE":74.6394,"ARG_OF_PERICENTER":74.2276,"MEAN_ANOMALY":315.8835,"EPHEMERIS_TYPE":0,"CLASSIFICATION_TYPE":"U","NORAD_CAT_ID":67972,"ELEMENT_SET_NO":999,"REV_AT_EPOCH":255,"BSTAR":-0.0028149,"MEAN_MOTION_DOT":-0.01551228,"MEAN_MOTION_DDOT":0.00075269},{"OBJECT_NAME":"STARLINK-36900","OBJECT_ID":"2026-038N","EPOCH":"2026-03-05T16:00:00.999936","MEAN_MOTION":16.01860316,"ECCENTRICITY":0.0001058,"INCLINATION":97.2743,"RA_OF_ASC_NODE":74.6415,"ARG_OF_PERICENTER":85.1091,"MEAN_ANOMALY":310.2474,"EPHEMERIS_TYPE":0,"CLASSIFICATION_TYPE":"U","NORAD_CAT_ID":67973,"ELEMENT_SET_NO":999,"REV_AT_EPOCH":255,"BSTAR":-0.0027598,"MEAN_MOTION_DOT":-0.01543664,"MEAN_MOTION_DDOT":0.0007481},{"OBJECT_NAME":"STARLINK-36901","OBJECT_ID":"2026-038P","EPOCH":"2026-03-05T16:00:00.999936","MEAN_MOTION":16.01722569,"ECCENTRICITY":0.0001167,"INCLINATION":97.2743,"RA_OF_ASC_NODE":74.6402,"ARG_OF_PERICENTER":70.9973,"MEAN_ANOMALY":321.6088,"EPHEMERIS_TYPE":0,"CLASSIFICATION_TYPE":"U","NORAD_CAT_ID":67974,"ELEMENT_SET_NO":999,"REV_AT_EPOCH":255,"BSTAR":-0.0027842,"MEAN_MOTION_DOT":-0.01544972,"MEAN_MOTION_DDOT":0.00074808},{"OBJECT_NAME":"STARLINK-36883","OBJECT_ID":"2026-038Q","EPOCH":"2026-03-05T16:00:00.999936","MEAN_MOTION":16.02384284,"ECCENTRICITY":0.000122,"INCLINATION":97.2737,"RA_OF_ASC_NODE":74.6461,"ARG_OF_PERICENTER":69.3646,"MEAN_ANOMALY":336.6153,"EPHEMERIS_TYPE":0,"CLASSIFICATION_TYPE":"U","NORAD_CAT_ID":67975,"ELEMENT_SET_NO":999,"REV_AT_EPOCH":255,"BSTAR":-0.0026494,"MEAN_MOTION_DOT":-0.01527862,"MEAN_MOTION_DDOT":0.00073841},{"OBJECT_NAME":"STARLINK-36880","OBJECT_ID":"2026-038R","EPOCH":"2026-03-05T16:00:00.999936","MEAN_MOTION":16.01991508,"ECCENTRICITY":0.0001146,"INCLINATION":97.2741,"RA_OF_ASC_NODE":74.6425,"ARG_OF_PERICENTER":75.1382,"MEAN_ANOMALY":322.894,"EPHEMERIS_TYPE":0,"CLASSIFICATION_TYPE":"U","NORAD_CAT_ID":67976,"ELEMENT_SET_NO":999,"REV_AT_EPOCH":255,"BSTAR":-0.002732,"MEAN_MOTION_DOT":-0.01539785,"MEAN_MOTION_DDOT":0.00074574},{"OBJECT_NAME":"STARLINK-36904","OBJECT_ID":"2026-038S","EPOCH":"2026-03-05T16:00:00.999936","MEAN_MOTION":16.0225183,"ECCENTRICITY":0.0001284,"INCLINATION":97.2737,"RA_OF_ASC_NODE":74.6445,"ARG_OF_PERICENTER":68.8039,"MEAN_ANOMALY":334.5147,"EPHEMERIS_TYPE":0,"CLASSIFICATION_TYPE":"U","NORAD_CAT_ID":67977,"ELEMENT_SET_NO":999,"REV_AT_EPOCH":255,"BSTAR":-0.0026752,"MEAN_MOTION_DOT":-0.01530904,"MEAN_MOTION_DDOT":0.00074},{"OBJECT_NAME":"STARLINK-36364","OBJECT_ID":"2026-038T","EPOCH":"2026-03-05T16:00:00.999936","MEAN_MOTION":16.02707221,"ECCENTRICITY":0.0001111,"INCLINATION":97.2731,"RA_OF_ASC_NODE":74.6485,"ARG_OF_PERICENTER":86.3542,"MEAN_ANOMALY":325.8417,"EPHEMERIS_TYPE":0,"CLASSIFICATION_TYPE":"U","NORAD_CAT_ID":67978,"ELEMENT_SET_NO":999,"REV_AT_EPOCH":255,"BSTAR":-0.0026059,"MEAN_MOTION_DOT":-0.01531318,"MEAN_MOTION_DDOT":0.00074433},{"OBJECT_NAME":"STARLINK-36359","OBJECT_ID":"2026-038U","EPOCH":"2026-03-05T16:00:00.999936","MEAN_MOTION":16.02101424,"ECCENTRICITY":0.0001101,"INCLINATION":97.2738,"RA_OF_ASC_NODE":74.643,"ARG_OF_PERICENTER":81.4662,"MEAN_ANOMALY":318.8111,"EPHEMERIS_TYPE":0,"CLASSIFICATION_TYPE":"U","NORAD_CAT_ID":67979,"ELEMENT_SET_NO":999,"REV_AT_EPOCH":255,"BSTAR":-0.0027108,"MEAN_MOTION_DOT":-0.01537627,"MEAN_MOTION_DDOT":0.00074475}]
